[
    {
        "Altitude(m)": 571293.885432314,
        "Argument of Periapsis(deg)": 0.019868973332140504,
        "Eccentricity": 0.0,
        "Inclination(deg)": 53.0,
        "Latitude(deg)": -51.733365695919176,
        "Longitude(deg)": 50.79752498216164,
        "Mean Anomaly(deg)": -78.81612139726722,
        "RAAN(deg)": 224.97043010558406,
        "Satellite Name": "Starlink Shell 1 1005",
        "Satellite Number": 1005,
        "Semi-Major Axis(m)": 6931778.249405717,
        "Time(s)": 570
    },
    {
        "Altitude(m)": 571231.3077234245,
        "Argument of Periapsis(deg)": 0.02021755181165174,
        "Eccentricity": 0.0,
        "Inclination(deg)": 53.0,
        "Latitude(deg)": -51.573627961896236,
        "Longitude(deg)": 51.72711678446163,
        "Mean Anomaly(deg)": -78.18929019371055,
        "RAAN(deg)": 224.96991133550657,
        "Satellite Name": "Starlink Shell 1 1005",
        "Satellite Number": 1005,
        "Semi-Major Axis(m)": 6931778.249405717,
        "Time(s)": 580
    },
    {
        "Altitude(m)": 571165.4931618915,
        "Argument of Periapsis(deg)": 0.020566130291162974,
        "Eccentricity": 0.0,
        "Inclination(deg)": 53.0,
        "Latitude(deg)": -51.4059137309098,
        "Longitude(deg)": 52.649770892674425,
        "Mean Anomaly(deg)": -77.5624589901538,
        "RAAN(deg)": 224.96939256542913,
        "Satellite Name": "Starlink Shell 1 1005",
        "Satellite Number": 1005,
        "Semi-Major Axis(m)": 6931778.249405717,
        "Time(s)": 590
    },
    {
        "Altitude(m)": 571096.4679447209,
        "Argument of Periapsis(deg)": 0.020914708770674213,
        "Eccentricity": 0.0,
        "Inclination(deg)": 53.0,
        "Latitude(deg)": -51.23032750655298,
        "Longitude(deg)": 53.5652478998462,
        "Mean Anomaly(deg)": -76.93562778659715,
        "RAAN(deg)": 224.9688737953516,
        "Satellite Name": "Starlink Shell 1 1005",
        "Satellite Number": 1005,
        "Semi-Major Axis(m)": 6931778.249405717,
        "Time(s)": 600
    },
    {
        "Altitude(m)": 571024.2595415458,
        "Argument of Periapsis(deg)": 0.021263287250185448,
        "Eccentricity": 0.0,
        "Inclination(deg)": 53.0,
        "Latitude(deg)": -51.046976785509905,
        "Longitude(deg)": 54.47332457717457,
        "Mean Anomaly(deg)": -76.30879658304048,
        "RAAN(deg)": 224.96835502527412,
        "Satellite Name": "Starlink Shell 1 1005",
        "Satellite Number": 1005,
        "Semi-Major Axis(m)": 6931778.249405717,
        "Time(s)": 610
    },
    {
        "Altitude(m)": 570948.8966827099,
        "Argument of Periapsis(deg)": 0.021611865729696686,
        "Eccentricity": 0.0,
        "Inclination(deg)": 53.0,
        "Latitude(deg)": -50.855971777492954,
        "Longitude(deg)": 55.373794405819744,
        "Mean Anomaly(deg)": -75.68196537948361,
        "RAAN(deg)": 224.9678362551967,
        "Satellite Name": "Starlink Shell 1 1005",
        "Satellite Number": 1005,
        "Semi-Major Axis(m)": 6931778.249405717,
        "Time(s)": 620
    },
    {
        "Altitude(m)": 570870.4093468023,
        "Argument of Periapsis(deg)": 0.02196044420920792,
        "Eccentricity": 0.0,
        "Inclination(deg)": 53.0,
        "Latitude(deg)": -50.65742512790658,
        "Longitude(deg)": 56.26646635637864,
        "Mean Anomaly(deg)": -75.05513417592697,
        "RAAN(deg)": 224.96731748511922,
        "Satellite Name": "Starlink Shell 1 1005",
        "Satellite Number": 1005,
        "Semi-Major Axis(m)": 6931778.249405717,
        "Time(s)": 630
    },
    {
        "Altitude(m)": 570788.8287476603,
        "Argument of Periapsis(deg)": 0.02230902268871916,
        "Eccentricity": 0.0,
        "Inclination(deg)": 53.0,
        "Latitude(deg)": -50.45145164452942,
        "Longitude(deg)": 57.15116612266217,
        "Mean Anomaly(deg)": -74.4283029723703,
        "RAAN(deg)": 224.96679871504173,
        "Satellite Name": "Starlink Shell 1 1005",
        "Satellite Number": 1005,
        "Semi-Major Axis(m)": 6931778.249405717,
        "Time(s)": 640
    },
    {
        "Altitude(m)": 570704.1873207832,
        "Argument of Periapsis(deg)": 0.022657601168230398,
        "Eccentricity": 0.0,
        "Inclination(deg)": 53.0,
        "Latitude(deg)": -50.23816802941071,
        "Longitude(deg)": 58.02773477141014,
        "Mean Anomaly(deg)": -73.80147176881356,
        "RAAN(deg)": 224.96627994496427,
        "Satellite Name": "Starlink Shell 1 1005",
        "Satellite Number": 1005,
        "Semi-Major Axis(m)": 6931778.249405717,
        "Time(s)": 650
    },
    {
        "Altitude(m)": 570616.5187092606,
        "Argument of Periapsis(deg)": 0.023006179647741636,
        "Eccentricity": 0.0,
        "Inclination(deg)": 53.0,
        "Latitude(deg)": -50.01769261705167,
        "Longitude(deg)": 58.89602901515851,
        "Mean Anomaly(deg)": -73.17464056525678,
        "RAAN(deg)": 224.9657611748868,
        "Satellite Name": "Starlink Shell 1 1005",
        "Satellite Number": 1005,
        "Semi-Major Axis(m)": 6931778.249405717,
        "Time(s)": 660
    },
    {
        "Altitude(m)": 570525.857749143,
        "Argument of Periapsis(deg)": 0.023354758127252868,
        "Eccentricity": 0.0,
        "Inclination(deg)": 53.0,
        "Latitude(deg)": -49.79014511983523,
        "Longitude(deg)": 59.755921432251064,
        "Mean Anomaly(deg)": -72.5478093617001,
        "RAAN(deg)": 224.96524240480932,
        "Satellite Name": "Starlink Shell 1 1005",
        "Satellite Number": 1005,
        "Semi-Major Axis(m)": 6931778.249405717,
        "Time(s)": 670
    },
    {
        "Altitude(m)": 570432.2404542881,
        "Argument of Periapsis(deg)": 0.023703336606764106,
        "Eccentricity": 0.0,
        "Inclination(deg)": 53.0,
        "Latitude(deg)": -49.55564638155046,
        "Longitude(deg)": 60.60729912619005,
        "Mean Anomaly(deg)": -71.92097815814336,
        "RAAN(deg)": 224.96472363473185,
        "Satellite Name": "Starlink Shell 1 1005",
        "Satellite Number": 1005,
        "Semi-Major Axis(m)": 6931778.249405717,
        "Time(s)": 680
    },
    {
        "Altitude(m)": 570335.7040006919,
        "Argument of Periapsis(deg)": 0.024051915086275345,
        "Eccentricity": 0.0,
        "Inclination(deg)": 53.0,
        "Latitude(deg)": -49.31431813973819,
        "Longitude(deg)": 61.450063855164274,
        "Mean Anomaly(deg)": -71.29414695458672,
        "RAAN(deg)": 224.9642048646544,
        "Satellite Name": "Starlink Shell 1 1005",
        "Satellite Number": 1005,
        "Semi-Major Axis(m)": 6931778.249405717,
        "Time(s)": 690
    },
    {
        "Altitude(m)": 570236.2867103206,
        "Argument of Periapsis(deg)": 0.024400493565786583,
        "Eccentricity": 0.0,
        "Inclination(deg)": 53.0,
        "Latitude(deg)": -49.06628279747515,
        "Longitude(deg)": 62.28413212396212,
        "Mean Anomaly(deg)": -70.66731575102995,
        "RAAN(deg)": 224.9636860945769,
        "Satellite Name": "Starlink Shell 1 1005",
        "Satellite Number": 1005,
        "Semi-Major Axis(m)": 6931778.249405717,
        "Time(s)": 700
    },
    {
        "Altitude(m)": 570134.0280343976,
        "Argument of Periapsis(deg)": 0.024749072045297815,
        "Eccentricity": 0.0,
        "Inclination(deg)": 53.0,
        "Latitude(deg)": -48.811663205105596,
        "Longitude(deg)": 63.10943373038928,
        "Mean Anomaly(deg)": -70.04048454747328,
        "RAAN(deg)": 224.9631673244994,
        "Satellite Name": "Starlink Shell 1 1005",
        "Satellite Number": 1005,
        "Semi-Major Axis(m)": 6931778.249405717,
        "Time(s)": 710
    },
    {
        "Altitude(m)": 570028.9685362357,
        "Argument of Periapsis(deg)": 0.025097650524809053,
        "Eccentricity": 0.0,
        "Inclination(deg)": 53.0,
        "Latitude(deg)": -48.55058245231676,
        "Longitude(deg)": 63.92591179680746,
        "Mean Anomaly(deg)": -69.41365334391654,
        "RAAN(deg)": 224.96264855442195,
        "Satellite Name": "Starlink Shell 1 1005",
        "Satellite Number": 1005,
        "Semi-Major Axis(m)": 6931778.249405717,
        "Time(s)": 720
    },
    {
        "Altitude(m)": 569921.1498735298,
        "Argument of Periapsis(deg)": 0.02544622900432029,
        "Eccentricity": 0.0,
        "Inclination(deg)": 53.0,
        "Latitude(deg)": -48.28316367086169,
        "Longitude(deg)": 64.73352277861835,
        "Mean Anomaly(deg)": -68.78682214035976,
        "RAAN(deg)": 224.96212978434446,
        "Satellite Name": "Starlink Shell 1 1005",
        "Satellite Number": 1005,
        "Semi-Major Axis(m)": 6931778.249405717,
        "Time(s)": 730
    },
    {
        "Altitude(m)": 569810.6147802186,
        "Argument of Periapsis(deg)": 0.02579480748383153,
        "Eccentricity": 0.0,
        "Inclination(deg)": 53.0,
        "Latitude(deg)": -48.00952984813641,
        "Longitude(deg)": 65.53223494132553,
        "Mean Anomaly(deg)": -68.15999093680311,
        "RAAN(deg)": 224.96161101426702,
        "Satellite Name": "Starlink Shell 1 1005",
        "Satellite Number": 1005,
        "Semi-Major Axis(m)": 6931778.249405717,
        "Time(s)": 740
    },
    {
        "Altitude(m)": 569697.4070477987,
        "Argument of Periapsis(deg)": 0.026143385963342765,
        "Eccentricity": 0.0,
        "Inclination(deg)": 53.0,
        "Latitude(deg)": -47.72980365172695,
        "Longitude(deg)": 66.32202833618197,
        "Mean Anomaly(deg)": -67.53315973324636,
        "RAAN(deg)": 224.96109224418956,
        "Satellite Name": "Starlink Shell 1 1005",
        "Satellite Number": 1005,
        "Semi-Major Axis(m)": 6931778.249405717,
        "Time(s)": 750
    }
]